{"type":"FeatureCollection","features":[{"type":"Feature","geometry":{"type":"Point","coordinates":[4.744586,45.938043]},"properties":{"name":"s\u00e9diments exutoire","waterway":"Sa\u00f4ne","catobs":7,"catobs_label":"foul ground","watlev":1,"watlev_label":"partly submerged at high water","valsou_m":null,"inform":"outlet sediment","source":"VNF IENC (Licence Ouverte 2.0)"}},{"type":"Feature","geometry":{"type":"Point","coordinates":[4.811356,45.912288]},"properties":{"name":"ancienne \u00e9cluse de Port Bernalin","waterway":"Sa\u00f4ne","catobs":10,"catobs_label":"boom","watlev":1,"watlev_label":"partly submerged at high water","valsou_m":null,"inform":"old lock","source":"VNF IENC (Licence Ouverte 2.0)"}},{"type":"Feature","geometry":{"type":"Point","coordinates":[2.948475,50.72603]},"properties":{"name":"palplanches immerg\u00e9es","waterway":"Canal Dunkerque\u2013Escaut","catobs":1,"catobs_label":"snag / stump","watlev":3,"watlev_label":"always underwater / submerged","valsou_m":null,"inform":null,"source":"VNF IENC (Licence Ouverte 2.0)"}},{"type":"Feature","geometry":{"type":"Point","coordinates":[2.946653,50.729169]},"properties":{"name":"palplanches immerg\u00e9es","waterway":"Canal Dunkerque\u2013Escaut","catobs":1,"catobs_label":"snag / stump","watlev":3,"watlev_label":"always underwater / submerged","valsou_m":null,"inform":null,"source":"VNF IENC (Licence Ouverte 2.0)"}},{"type":"Feature","geometry":{"type":"Point","coordinates":[2.954564,50.722923]},"properties":{"name":"palplanches immerg\u00e9es","waterway":"Canal Dunkerque\u2013Escaut","catobs":1,"catobs_label":"snag / stump","watlev":3,"watlev_label":"always underwater / submerged","valsou_m":null,"inform":null,"source":"VNF IENC (Licence Ouverte 2.0)"}},{"type":"Feature","geometry":{"type":"Point","coordinates":[2.957775,50.722582]},"properties":{"name":"palplanches immerg\u00e9es","waterway":"Canal Dunkerque\u2013Escaut","catobs":1,"catobs_label":"snag / stump","watlev":3,"watlev_label":"always underwater / submerged","valsou_m":null,"inform":null,"source":"VNF IENC (Licence Ouverte 2.0)"}},{"type":"Feature","geometry":{"type":"Point","coordinates":[2.960101,50.72257]},"properties":{"name":"palplanches immerg\u00e9es","waterway":"Canal Dunkerque\u2013Escaut","catobs":1,"catobs_label":"snag / stump","watlev":3,"watlev_label":"always underwater / submerged","valsou_m":null,"inform":null,"source":"VNF IENC (Licence Ouverte 2.0)"}},{"type":"Feature","geometry":{"type":"Point","coordinates":[2.94878,50.726621]},"properties":{"name":"palplanches immerg\u00e9es","waterway":"Canal Dunkerque\u2013Escaut","catobs":1,"catobs_label":"snag / stump","watlev":3,"watlev_label":"always underwater / submerged","valsou_m":null,"inform":null,"source":"VNF IENC (Licence Ouverte 2.0)"}},{"type":"Feature","geometry":{"type":"Point","coordinates":[2.959149,50.723144]},"properties":{"name":"palplanches immerg\u00e9es","waterway":"Canal Dunkerque\u2013Escaut","catobs":1,"catobs_label":"snag / stump","watlev":3,"watlev_label":"always underwater / submerged","valsou_m":null,"inform":null,"source":"VNF IENC (Licence Ouverte 2.0)"}},{"type":"Feature","geometry":{"type":"Point","coordinates":[4.828436,45.79635]},"properties":{"name":"ancien barrage submerg\u00e9 (roches)","waterway":"Sa\u00f4ne","catobs":10,"catobs_label":"boom","watlev":3,"watlev_label":"always underwater / submerged","valsou_m":null,"inform":"NC","source":"VNF IENC (Licence Ouverte 2.0)"}},{"type":"Feature","geometry":{"type":"Point","coordinates":[4.834154,45.796836]},"properties":{"name":"roches","waterway":"Sa\u00f4ne","catobs":7,"catobs_label":"foul ground","watlev":1,"watlev_label":"partly submerged at high water","valsou_m":null,"inform":"NC","source":"VNF IENC (Licence Ouverte 2.0)"}},{"type":"Feature","geometry":{"type":"Point","coordinates":[4.857918,45.819806]},"properties":{"name":"roches","waterway":"Sa\u00f4ne","catobs":7,"catobs_label":"foul ground","watlev":1,"watlev_label":"partly submerged at high water","valsou_m":null,"inform":"NC","source":"VNF IENC (Licence Ouverte 2.0)"}},{"type":"Feature","geometry":{"type":"Point","coordinates":[4.843818,45.832463]},"properties":{"name":"roches","waterway":"Sa\u00f4ne","catobs":7,"catobs_label":"foul ground","watlev":3,"watlev_label":"always underwater / submerged","valsou_m":null,"inform":"NC","source":"VNF IENC (Licence Ouverte 2.0)"}},{"type":"Feature","geometry":{"type":"Point","coordinates":[4.834395,45.83511]},"properties":{"name":"roches","waterway":"Sa\u00f4ne","catobs":7,"catobs_label":"foul ground","watlev":3,"watlev_label":"always underwater / submerged","valsou_m":null,"inform":"NC","source":"VNF IENC (Licence Ouverte 2.0)"}},{"type":"Feature","geometry":{"type":"Point","coordinates":[4.8292,45.761428]},"properties":{"name":"Support de sculpture","waterway":"Sa\u00f4ne","catobs":4,"catobs_label":"crib","watlev":2,"watlev_label":"always dry","valsou_m":null,"inform":"NC","source":"VNF IENC (Licence Ouverte 2.0)"}},{"type":"Feature","geometry":{"type":"Point","coordinates":[4.744165,46.024343]},"properties":{"name":"s\u00e9diments exutoire","waterway":"Sa\u00f4ne","catobs":7,"catobs_label":"foul ground","watlev":1,"watlev_label":"partly submerged at high water","valsou_m":null,"inform":"outlet sediment","source":"VNF IENC (Licence Ouverte 2.0)"}},{"type":"Feature","geometry":{"type":"Point","coordinates":[4.752249,46.054298]},"properties":{"name":"s\u00e9diments exutoire","waterway":"Sa\u00f4ne","catobs":7,"catobs_label":"foul ground","watlev":2,"watlev_label":"always dry","valsou_m":null,"inform":"outlet sediment","source":"VNF IENC (Licence Ouverte 2.0)"}},{"type":"Feature","geometry":{"type":"Point","coordinates":[4.753096,46.080782]},"properties":{"name":"s\u00e9diments exutoire","waterway":"Sa\u00f4ne","catobs":7,"catobs_label":"foul ground","watlev":1,"watlev_label":"partly submerged at high water","valsou_m":null,"inform":"outlet sediment","source":"VNF IENC (Licence Ouverte 2.0)"}},{"type":"Feature","geometry":{"type":"Point","coordinates":[4.768287,46.108865]},"properties":{"name":"s\u00e9diments exutoire Ardi\u00e8res","waterway":"Sa\u00f4ne","catobs":7,"catobs_label":"foul ground","watlev":1,"watlev_label":"partly submerged at high water","valsou_m":null,"inform":"outlet sediment","source":"VNF IENC (Licence Ouverte 2.0)"}},{"type":"Feature","geometry":{"type":"Point","coordinates":[3.535503,50.462341]},"properties":{"name":null,"waterway":"Canal Dunkerque\u2013Escaut","catobs":1,"catobs_label":"snag / stump","watlev":1,"watlev_label":"partly submerged at high water","valsou_m":null,"inform":null,"source":"VNF IENC (Licence Ouverte 2.0)"}},{"type":"Feature","geometry":{"type":"Point","coordinates":[3.535592,50.462258]},"properties":{"name":null,"waterway":"Canal Dunkerque\u2013Escaut","catobs":1,"catobs_label":"snag / stump","watlev":1,"watlev_label":"partly submerged at high water","valsou_m":null,"inform":null,"source":"VNF IENC (Licence Ouverte 2.0)"}},{"type":"Feature","geometry":{"type":"Point","coordinates":[1.421535,49.140216]},"properties":{"name":null,"waterway":"Seine","catobs":1,"catobs_label":"snag / stump","watlev":3,"watlev_label":"always underwater / submerged","valsou_m":null,"inform":null,"source":"VNF IENC (Licence Ouverte 2.0)"}},{"type":"Feature","geometry":{"type":"Point","coordinates":[5.196952,47.068197]},"properties":{"name":"\u00eelot","waterway":"Sa\u00f4ne","catobs":7,"catobs_label":"foul ground","watlev":1,"watlev_label":"partly submerged at high water","valsou_m":null,"inform":"small island","source":"VNF IENC (Licence Ouverte 2.0)"}},{"type":"Feature","geometry":{"type":"Point","coordinates":[5.206534,47.076266]},"properties":{"name":"zone de vase et d'herbiers","waterway":"Sa\u00f4ne","catobs":7,"catobs_label":"foul ground","watlev":3,"watlev_label":"always underwater / submerged","valsou_m":null,"inform":"silt and grasses","source":"VNF IENC (Licence Ouverte 2.0)"}},{"type":"Feature","geometry":{"type":"Point","coordinates":[5.284616,47.103179]},"properties":{"name":null,"waterway":"Sa\u00f4ne","catobs":7,"catobs_label":"foul ground","watlev":1,"watlev_label":"partly submerged at high water","valsou_m":null,"inform":"banc de sable exutoire Ouche","source":"VNF IENC (Licence Ouverte 2.0)"}},{"type":"Feature","geometry":{"type":"Point","coordinates":[5.228227,47.083699]},"properties":{"name":"zone humide","waterway":"Sa\u00f4ne","catobs":6,"catobs_label":"foul area","watlev":1,"watlev_label":"partly submerged at high water","valsou_m":null,"inform":"swampland","source":"VNF IENC (Licence Ouverte 2.0)"}},{"type":"Feature","geometry":{"type":"Point","coordinates":[2.360211,50.712896]},"properties":{"name":"palplanches immerg\u00e9es","waterway":"Canal Dunkerque\u2013Escaut","catobs":1,"catobs_label":"snag / stump","watlev":3,"watlev_label":"always underwater / submerged","valsou_m":null,"inform":null,"source":"VNF IENC (Licence Ouverte 2.0)"}},{"type":"Feature","geometry":{"type":"Point","coordinates":[4.953297,46.654557]},"properties":{"name":"ancienne \u00e9cluse de Gigny","waterway":"Sa\u00f4ne","catobs":10,"catobs_label":"boom","watlev":1,"watlev_label":"partly submerged at high water","valsou_m":null,"inform":"old lock of Gigny","source":"VNF IENC (Licence Ouverte 2.0)"}},{"type":"Feature","geometry":{"type":"Point","coordinates":[4.955208,46.65479]},"properties":{"name":"s\u00e9diments exutoire","waterway":"Sa\u00f4ne","catobs":7,"catobs_label":"foul ground","watlev":3,"watlev_label":"always underwater / submerged","valsou_m":null,"inform":"outlet sediments","source":"VNF IENC (Licence Ouverte 2.0)"}},{"type":"Feature","geometry":{"type":"Point","coordinates":[4.94901,46.675531]},"properties":{"name":"banc de graviers","waterway":"Sa\u00f4ne","catobs":7,"catobs_label":"foul ground","watlev":3,"watlev_label":"always underwater / submerged","valsou_m":null,"inform":"gravels","source":"VNF IENC (Licence Ouverte 2.0)"}},{"type":"Feature","geometry":{"type":"Point","coordinates":[4.94125,46.697907]},"properties":{"name":"banc de graviers","waterway":"Sa\u00f4ne","catobs":7,"catobs_label":"foul ground","watlev":3,"watlev_label":"always underwater / submerged","valsou_m":null,"inform":"gravels","source":"VNF IENC (Licence Ouverte 2.0)"}},{"type":"Feature","geometry":{"type":"Point","coordinates":[4.933137,46.70857]},"properties":{"name":"banc de graviers","waterway":"Sa\u00f4ne","catobs":7,"catobs_label":"foul ground","watlev":3,"watlev_label":"always underwater / submerged","valsou_m":null,"inform":"gravels","source":"VNF IENC (Licence Ouverte 2.0)"}},{"type":"Feature","geometry":{"type":"Point","coordinates":[4.922154,46.715676]},"properties":{"name":"zone de vase et d'herbiers","waterway":"Sa\u00f4ne","catobs":6,"catobs_label":"foul area","watlev":3,"watlev_label":"always underwater / submerged","valsou_m":null,"inform":"SILTS and watergrass","source":"VNF IENC (Licence Ouverte 2.0)"}},{"type":"Feature","geometry":{"type":"Point","coordinates":[4.879965,46.735802]},"properties":{"name":"zone de vase et d'herbiers","waterway":"Sa\u00f4ne","catobs":6,"catobs_label":"foul area","watlev":1,"watlev_label":"partly submerged at high water","valsou_m":null,"inform":"SILTS and watergrass","source":"VNF IENC (Licence Ouverte 2.0)"}},{"type":"Feature","geometry":{"type":"Point","coordinates":[4.955144,46.65472]},"properties":{"name":null,"waterway":"Sa\u00f4ne","catobs":null,"catobs_label":null,"watlev":3,"watlev_label":"always underwater / submerged","valsou_m":null,"inform":null,"source":"VNF IENC (Licence Ouverte 2.0)"}},{"type":"Feature","geometry":{"type":"Point","coordinates":[4.943315,46.695194]},"properties":{"name":null,"waterway":"Sa\u00f4ne","catobs":7,"catobs_label":"foul ground","watlev":3,"watlev_label":"always underwater / submerged","valsou_m":null,"inform":"graviers","source":"VNF IENC (Licence Ouverte 2.0)"}},{"type":"Feature","geometry":{"type":"Point","coordinates":[4.894997,46.44438]},"properties":{"name":"obstacle digue submerg\u00e9e","waterway":"Sa\u00f4ne","catobs":10,"catobs_label":"boom","watlev":3,"watlev_label":"always underwater / submerged","valsou_m":null,"inform":null,"source":"VNF IENC (Licence Ouverte 2.0)"}},{"type":"Feature","geometry":{"type":"Point","coordinates":[4.911038,46.45925]},"properties":{"name":"zone de vase et d'herbiers","waterway":"Sa\u00f4ne","catobs":6,"catobs_label":"foul area","watlev":3,"watlev_label":"always underwater / submerged","valsou_m":null,"inform":"silt and watergrass","source":"VNF IENC (Licence Ouverte 2.0)"}},{"type":"Feature","geometry":{"type":"Point","coordinates":[4.914846,46.472144]},"properties":{"name":"zone de vase et d'herbiers","waterway":"Sa\u00f4ne","catobs":6,"catobs_label":"foul area","watlev":3,"watlev_label":"always underwater / submerged","valsou_m":null,"inform":"silt and watergrass","source":"VNF IENC (Licence Ouverte 2.0)"}},{"type":"Feature","geometry":{"type":"Point","coordinates":[4.916225,46.478118]},"properties":{"name":"digue dangereuse enrochements","waterway":"Sa\u00f4ne","catobs":6,"catobs_label":"foul area","watlev":3,"watlev_label":"always underwater / submerged","valsou_m":null,"inform":"silt and watergrass","source":"VNF IENC (Licence Ouverte 2.0)"}},{"type":"Feature","geometry":{"type":"Point","coordinates":[4.916706,46.488337]},"properties":{"name":"zone de vase et d'herbiers","waterway":"Sa\u00f4ne","catobs":6,"catobs_label":"foul area","watlev":3,"watlev_label":"always underwater / submerged","valsou_m":null,"inform":"silt and watergrass","source":"VNF IENC (Licence Ouverte 2.0)"}},{"type":"Feature","geometry":{"type":"Point","coordinates":[4.925257,46.495594]},"properties":{"name":"enrochements","waterway":"Sa\u00f4ne","catobs":7,"catobs_label":"foul ground","watlev":3,"watlev_label":"always underwater / submerged","valsou_m":null,"inform":"rip rap","source":"VNF IENC (Licence Ouverte 2.0)"}},{"type":"Feature","geometry":{"type":"Point","coordinates":[4.929233,46.507383]},"properties":{"name":"enrochements","waterway":"Sa\u00f4ne","catobs":7,"catobs_label":"foul ground","watlev":3,"watlev_label":"always underwater / submerged","valsou_m":null,"inform":"rip rap","source":"VNF IENC (Licence Ouverte 2.0)"}},{"type":"Feature","geometry":{"type":"Point","coordinates":[4.937092,46.518953]},"properties":{"name":"zone de vase et d'herbiers","waterway":"Sa\u00f4ne","catobs":6,"catobs_label":"foul area","watlev":3,"watlev_label":"always underwater / submerged","valsou_m":null,"inform":"silt and watergrass","source":"VNF IENC (Licence Ouverte 2.0)"}},{"type":"Feature","geometry":{"type":"Point","coordinates":[4.93648,46.525829]},"properties":{"name":"enrochements","waterway":"Sa\u00f4ne","catobs":7,"catobs_label":"foul ground","watlev":3,"watlev_label":"always underwater / submerged","valsou_m":null,"inform":"rip rap","source":"VNF IENC (Licence Ouverte 2.0)"}},{"type":"Feature","geometry":{"type":"Point","coordinates":[4.893966,46.441828]},"properties":{"name":"obstacle digue submerg\u00e9e","waterway":"Sa\u00f4ne","catobs":10,"catobs_label":"boom","watlev":3,"watlev_label":"always underwater / submerged","valsou_m":null,"inform":null,"source":"VNF IENC (Licence Ouverte 2.0)"}},{"type":"Feature","geometry":{"type":"Point","coordinates":[4.894562,46.441895]},"properties":{"name":"obstacle digue submerg\u00e9e","waterway":"Sa\u00f4ne","catobs":10,"catobs_label":"boom","watlev":3,"watlev_label":"always underwater / submerged","valsou_m":null,"inform":null,"source":"VNF IENC (Licence Ouverte 2.0)"}},{"type":"Feature","geometry":{"type":"Point","coordinates":[4.92703,46.501371]},"properties":{"name":"zone de vase et d'herbiers","waterway":"Sa\u00f4ne","catobs":6,"catobs_label":"foul area","watlev":3,"watlev_label":"always underwater / submerged","valsou_m":null,"inform":"silt and watergrass","source":"VNF IENC (Licence Ouverte 2.0)"}},{"type":"Feature","geometry":{"type":"Point","coordinates":[4.93523,46.512833]},"properties":{"name":"zone de vase et d'herbiers","waterway":"Sa\u00f4ne","catobs":6,"catobs_label":"foul area","watlev":3,"watlev_label":"always underwater / submerged","valsou_m":null,"inform":"silt and watergrass","source":"VNF IENC (Licence Ouverte 2.0)"}},{"type":"Feature","geometry":{"type":"Point","coordinates":[4.852173,46.358635]},"properties":{"name":"zone de vase et d'herbiers","waterway":"Sa\u00f4ne","catobs":6,"catobs_label":"foul area","watlev":1,"watlev_label":"partly submerged at high water","valsou_m":null,"inform":"silt and watergrass","source":"VNF IENC (Licence Ouverte 2.0)"}},{"type":"Feature","geometry":{"type":"Point","coordinates":[4.871886,46.384141]},"properties":{"name":"zone de vase et d'herbiers","waterway":"Sa\u00f4ne","catobs":6,"catobs_label":"foul area","watlev":3,"watlev_label":"always underwater / submerged","valsou_m":null,"inform":"silt and watergrass","source":"VNF IENC (Licence Ouverte 2.0)"}},{"type":"Feature","geometry":{"type":"Point","coordinates":[4.879186,46.389882]},"properties":{"name":"zone de vase et d'herbiers","waterway":"Sa\u00f4ne","catobs":6,"catobs_label":"foul area","watlev":3,"watlev_label":"always underwater / submerged","valsou_m":null,"inform":"silt and watergrass","source":"VNF IENC (Licence Ouverte 2.0)"}},{"type":"Feature","geometry":{"type":"Point","coordinates":[4.889993,46.404174]},"properties":{"name":"zone de vase et d'herbiers","waterway":"Sa\u00f4ne","catobs":6,"catobs_label":"foul area","watlev":3,"watlev_label":"always underwater / submerged","valsou_m":null,"inform":"silt and watergrass","source":"VNF IENC (Licence Ouverte 2.0)"}},{"type":"Feature","geometry":{"type":"Point","coordinates":[4.887245,46.408941]},"properties":{"name":"zone de vase et d'herbiers","waterway":"Sa\u00f4ne","catobs":6,"catobs_label":"foul area","watlev":3,"watlev_label":"always underwater / submerged","valsou_m":null,"inform":"silt and watergrass","source":"VNF IENC (Licence Ouverte 2.0)"}},{"type":"Feature","geometry":{"type":"Point","coordinates":[4.891098,46.427631]},"properties":{"name":"obstacle digue submerg\u00e9e","waterway":"Sa\u00f4ne","catobs":10,"catobs_label":"boom","watlev":3,"watlev_label":"always underwater / submerged","valsou_m":null,"inform":null,"source":"VNF IENC (Licence Ouverte 2.0)"}},{"type":"Feature","geometry":{"type":"Point","coordinates":[4.888307,46.42316]},"properties":{"name":"zone de vase et d'herbiers","waterway":"Sa\u00f4ne","catobs":6,"catobs_label":"foul area","watlev":3,"watlev_label":"always underwater / submerged","valsou_m":null,"inform":"silt and watergrass","source":"VNF IENC (Licence Ouverte 2.0)"}},{"type":"Feature","geometry":{"type":"Point","coordinates":[4.888117,46.433965]},"properties":{"name":"zone de vase et d'herbiers","waterway":"Sa\u00f4ne","catobs":6,"catobs_label":"foul area","watlev":3,"watlev_label":"always underwater / submerged","valsou_m":null,"inform":"silt and watergrass","source":"VNF IENC (Licence Ouverte 2.0)"}},{"type":"Feature","geometry":{"type":"Point","coordinates":[4.871941,46.381125]},"properties":{"name":"zone de vase et d'herbiers","waterway":"Sa\u00f4ne","catobs":6,"catobs_label":"foul area","watlev":3,"watlev_label":"always underwater / submerged","valsou_m":null,"inform":"silt and watergrass","source":"VNF IENC (Licence Ouverte 2.0)"}},{"type":"Feature","geometry":{"type":"Point","coordinates":[4.921739,46.552201]},"properties":{"name":"enrochements","waterway":"Sa\u00f4ne","catobs":7,"catobs_label":"foul ground","watlev":3,"watlev_label":"always underwater / submerged","valsou_m":null,"inform":"rip rap","source":"VNF IENC (Licence Ouverte 2.0)"}},{"type":"Feature","geometry":{"type":"Point","coordinates":[4.918314,46.555637]},"properties":{"name":"banc de graviers","waterway":"Sa\u00f4ne","catobs":7,"catobs_label":"foul ground","watlev":3,"watlev_label":"always underwater / submerged","valsou_m":null,"inform":"GRAVELS","source":"VNF IENC (Licence Ouverte 2.0)"}},{"type":"Feature","geometry":{"type":"Point","coordinates":[4.91273,46.573525]},"properties":{"name":"banc de sable","waterway":"Sa\u00f4ne","catobs":7,"catobs_label":"foul ground","watlev":3,"watlev_label":"always underwater / submerged","valsou_m":null,"inform":"SAND BED","source":"VNF IENC (Licence Ouverte 2.0)"}},{"type":"Feature","geometry":{"type":"Point","coordinates":[4.914752,46.573539]},"properties":{"name":"zone de vase et d'herbiers","waterway":"Sa\u00f4ne","catobs":6,"catobs_label":"foul area","watlev":1,"watlev_label":"partly submerged at high water","valsou_m":null,"inform":"SILT AND WATERGRASS","source":"VNF IENC (Licence Ouverte 2.0)"}},{"type":"Feature","geometry":{"type":"Point","coordinates":[4.915307,46.581553]},"properties":{"name":"zone de vase et d'herbiers","waterway":"Sa\u00f4ne","catobs":6,"catobs_label":"foul area","watlev":3,"watlev_label":"always underwater / submerged","valsou_m":null,"inform":"SILT AND WATERGRASS","source":"VNF IENC (Licence Ouverte 2.0)"}},{"type":"Feature","geometry":{"type":"Point","coordinates":[4.921509,46.589161]},"properties":{"name":"zone de vase et d'herbiers","waterway":"Sa\u00f4ne","catobs":6,"catobs_label":"foul area","watlev":3,"watlev_label":"always underwater / submerged","valsou_m":null,"inform":"SILT AND WATERGRASS","source":"VNF IENC (Licence Ouverte 2.0)"}},{"type":"Feature","geometry":{"type":"Point","coordinates":[4.922954,46.591953]},"properties":{"name":"zone de vase et d'herbiers","waterway":"Sa\u00f4ne","catobs":6,"catobs_label":"foul area","watlev":3,"watlev_label":"always underwater / submerged","valsou_m":null,"inform":"SILT AND WATERGRASS","source":"VNF IENC (Licence Ouverte 2.0)"}},{"type":"Feature","geometry":{"type":"Point","coordinates":[4.929666,46.599322]},"properties":{"name":"zone de vase et d'herbiers","waterway":"Sa\u00f4ne","catobs":6,"catobs_label":"foul area","watlev":3,"watlev_label":"always underwater / submerged","valsou_m":null,"inform":"SILT AND WATERGRASS","source":"VNF IENC (Licence Ouverte 2.0)"}},{"type":"Feature","geometry":{"type":"Point","coordinates":[4.940128,46.610931]},"properties":{"name":"zone de vase et d'herbiers","waterway":"Sa\u00f4ne","catobs":6,"catobs_label":"foul area","watlev":3,"watlev_label":"always underwater / submerged","valsou_m":null,"inform":"SILT AND WATERGRASS","source":"VNF IENC (Licence Ouverte 2.0)"}},{"type":"Feature","geometry":{"type":"Point","coordinates":[4.941556,46.609886]},"properties":{"name":"zone de vase et d'herbiers","waterway":"Sa\u00f4ne","catobs":6,"catobs_label":"foul area","watlev":3,"watlev_label":"always underwater / submerged","valsou_m":null,"inform":"SILT AND WATERGRASS","source":"VNF IENC (Licence Ouverte 2.0)"}},{"type":"Feature","geometry":{"type":"Point","coordinates":[4.953554,46.630305]},"properties":{"name":"zone de vase et d'herbiers","waterway":"Sa\u00f4ne","catobs":6,"catobs_label":"foul area","watlev":3,"watlev_label":"always underwater / submerged","valsou_m":null,"inform":"SILT AND WATERGRASS","source":"VNF IENC (Licence Ouverte 2.0)"}},{"type":"Feature","geometry":{"type":"Point","coordinates":[4.954565,46.635025]},"properties":{"name":"zone de vase et d'herbiers","waterway":"Sa\u00f4ne","catobs":6,"catobs_label":"foul area","watlev":3,"watlev_label":"always underwater / submerged","valsou_m":null,"inform":"SILT AND WATERGRASS","source":"VNF IENC (Licence Ouverte 2.0)"}},{"type":"Feature","geometry":{"type":"Point","coordinates":[4.957007,46.637403]},"properties":{"name":"zone de vase et d'herbiers","waterway":"Sa\u00f4ne","catobs":6,"catobs_label":"foul area","watlev":3,"watlev_label":"always underwater / submerged","valsou_m":null,"inform":"SILT AND WATERGRASS","source":"VNF IENC (Licence Ouverte 2.0)"}},{"type":"Feature","geometry":{"type":"Point","coordinates":[4.812796,46.252965]},"properties":{"name":"zone de vase et d'herbiers","waterway":"Sa\u00f4ne","catobs":6,"catobs_label":"foul area","watlev":1,"watlev_label":"partly submerged at high water","valsou_m":null,"inform":null,"source":"VNF IENC (Licence Ouverte 2.0)"}},{"type":"Feature","geometry":{"type":"Point","coordinates":[4.809368,46.257508]},"properties":{"name":"banc de sable","waterway":"Sa\u00f4ne","catobs":7,"catobs_label":"foul ground","watlev":1,"watlev_label":"partly submerged at high water","valsou_m":null,"inform":null,"source":"VNF IENC (Licence Ouverte 2.0)"}},{"type":"Feature","geometry":{"type":"Point","coordinates":[4.814218,46.264617]},"properties":{"name":"zone de vase et d'herbiers","waterway":"Sa\u00f4ne","catobs":6,"catobs_label":"foul area","watlev":1,"watlev_label":"partly submerged at high water","valsou_m":null,"inform":null,"source":"VNF IENC (Licence Ouverte 2.0)"}},{"type":"Feature","geometry":{"type":"Point","coordinates":[4.830841,46.297563]},"properties":{"name":"ancien barrage submerg\u00e9","waterway":"Sa\u00f4ne","catobs":10,"catobs_label":"boom","watlev":1,"watlev_label":"partly submerged at high water","valsou_m":null,"inform":null,"source":"VNF IENC (Licence Ouverte 2.0)"}},{"type":"Feature","geometry":{"type":"Point","coordinates":[4.829923,46.295533]},"properties":{"name":"zone de vase et d'herbiers","waterway":"Sa\u00f4ne","catobs":6,"catobs_label":"foul area","watlev":1,"watlev_label":"partly submerged at high water","valsou_m":null,"inform":null,"source":"VNF IENC (Licence Ouverte 2.0)"}},{"type":"Feature","geometry":{"type":"Point","coordinates":[4.842134,46.31175]},"properties":{"name":"succession d'\u00eeles submerg\u00e9es","waterway":"Sa\u00f4ne","catobs":7,"catobs_label":"foul ground","watlev":1,"watlev_label":"partly submerged at high water","valsou_m":null,"inform":null,"source":"VNF IENC (Licence Ouverte 2.0)"}},{"type":"Feature","geometry":{"type":"Point","coordinates":[4.853044,46.335146]},"properties":{"name":"\u00eelot","waterway":"Sa\u00f4ne","catobs":7,"catobs_label":"foul ground","watlev":1,"watlev_label":"partly submerged at high water","valsou_m":null,"inform":null,"source":"VNF IENC (Licence Ouverte 2.0)"}},{"type":"Feature","geometry":{"type":"Point","coordinates":[4.799591,46.141571]},"properties":{"name":"banc de sable","waterway":"Sa\u00f4ne","catobs":7,"catobs_label":"foul ground","watlev":1,"watlev_label":"partly submerged at high water","valsou_m":null,"inform":"SAND BED","source":"VNF IENC (Licence Ouverte 2.0)"}},{"type":"Feature","geometry":{"type":"Point","coordinates":[4.802443,46.148607]},"properties":{"name":"ancienne \u00e9cluse de Thoissey","waterway":"Sa\u00f4ne","catobs":10,"catobs_label":"boom","watlev":1,"watlev_label":"partly submerged at high water","valsou_m":null,"inform":"OLD LOCK","source":"VNF IENC (Licence Ouverte 2.0)"}},{"type":"Feature","geometry":{"type":"Point","coordinates":[4.789676,46.19981]},"properties":{"name":"\u00eelot","waterway":"Sa\u00f4ne","catobs":null,"catobs_label":null,"watlev":1,"watlev_label":"partly submerged at high water","valsou_m":null,"inform":"island","source":"VNF IENC (Licence Ouverte 2.0)"}},{"type":"Feature","geometry":{"type":"Point","coordinates":[2.263349,51.002803]},"properties":{"name":null,"waterway":"Canal Dunkerque\u2013Escaut","catobs":1,"catobs_label":"snag / stump","watlev":5,"watlev_label":"awash","valsou_m":null,"inform":null,"source":"VNF IENC (Licence Ouverte 2.0)"}},{"type":"Feature","geometry":{"type":"Point","coordinates":[1.614342,49.021418]},"properties":{"name":null,"waterway":"Seine","catobs":1,"catobs_label":"snag / stump","watlev":4,"watlev_label":"covers and uncovers","valsou_m":null,"inform":null,"source":"VNF IENC (Licence Ouverte 2.0)"}},{"type":"Feature","geometry":{"type":"Point","coordinates":[3.058755,50.683122]},"properties":{"name":"palplanches immerg\u00e9es","waterway":"Canal Dunkerque\u2013Escaut","catobs":1,"catobs_label":"snag / stump","watlev":3,"watlev_label":"always underwater / submerged","valsou_m":null,"inform":null,"source":"VNF IENC (Licence Ouverte 2.0)"}},{"type":"Feature","geometry":{"type":"Point","coordinates":[3.044481,50.69222]},"properties":{"name":"palplanches immerg\u00e9es","waterway":"Canal Dunkerque\u2013Escaut","catobs":1,"catobs_label":"snag / stump","watlev":3,"watlev_label":"always underwater / submerged","valsou_m":null,"inform":null,"source":"VNF IENC (Licence Ouverte 2.0)"}},{"type":"Feature","geometry":{"type":"Point","coordinates":[3.044098,50.692772]},"properties":{"name":"palplanches immerg\u00e9es","waterway":"Canal Dunkerque\u2013Escaut","catobs":1,"catobs_label":"snag / stump","watlev":3,"watlev_label":"always underwater / submerged","valsou_m":null,"inform":null,"source":"VNF IENC (Licence Ouverte 2.0)"}},{"type":"Feature","geometry":{"type":"Point","coordinates":[3.059717,50.67974]},"properties":{"name":"palplanches immerg\u00e9es","waterway":"Canal Dunkerque\u2013Escaut","catobs":1,"catobs_label":"snag / stump","watlev":3,"watlev_label":"always underwater / submerged","valsou_m":null,"inform":null,"source":"VNF IENC (Licence Ouverte 2.0)"}},{"type":"Feature","geometry":{"type":"Point","coordinates":[3.06309,50.671744]},"properties":{"name":"palplanches immerg\u00e9es","waterway":"Canal Dunkerque\u2013Escaut","catobs":1,"catobs_label":"snag / stump","watlev":3,"watlev_label":"always underwater / submerged","valsou_m":null,"inform":null,"source":"VNF IENC (Licence Ouverte 2.0)"}},{"type":"Feature","geometry":{"type":"Point","coordinates":[3.050723,50.650389]},"properties":{"name":"palplanches immerg\u00e9es","waterway":"Canal Dunkerque\u2013Escaut","catobs":1,"catobs_label":"snag / stump","watlev":3,"watlev_label":"always underwater / submerged","valsou_m":null,"inform":null,"source":"VNF IENC (Licence Ouverte 2.0)"}},{"type":"Feature","geometry":{"type":"Point","coordinates":[3.05577,50.654815]},"properties":{"name":"palplanches immerg\u00e9es","waterway":"Canal Dunkerque\u2013Escaut","catobs":1,"catobs_label":"snag / stump","watlev":3,"watlev_label":"always underwater / submerged","valsou_m":null,"inform":null,"source":"VNF IENC (Licence Ouverte 2.0)"}},{"type":"Feature","geometry":{"type":"Point","coordinates":[3.059821,50.682674]},"properties":{"name":"palplanches immerg\u00e9es","waterway":"Canal Dunkerque\u2013Escaut","catobs":1,"catobs_label":"snag / stump","watlev":3,"watlev_label":"always underwater / submerged","valsou_m":null,"inform":null,"source":"VNF IENC (Licence Ouverte 2.0)"}},{"type":"Feature","geometry":{"type":"Point","coordinates":[3.059191,50.677591]},"properties":{"name":"palplanches immerg\u00e9es","waterway":"Canal Dunkerque\u2013Escaut","catobs":1,"catobs_label":"snag / stump","watlev":3,"watlev_label":"always underwater / submerged","valsou_m":null,"inform":null,"source":"VNF IENC (Licence Ouverte 2.0)"}},{"type":"Feature","geometry":{"type":"Point","coordinates":[3.03637,50.693967]},"properties":{"name":"palplanches immerg\u00e9es","waterway":"Canal Dunkerque\u2013Escaut","catobs":1,"catobs_label":"snag / stump","watlev":3,"watlev_label":"always underwater / submerged","valsou_m":null,"inform":null,"source":"VNF IENC (Licence Ouverte 2.0)"}},{"type":"Feature","geometry":{"type":"Point","coordinates":[3.041559,50.693019]},"properties":{"name":"palplanches immerg\u00e9es","waterway":"Canal Dunkerque\u2013Escaut","catobs":1,"catobs_label":"snag / stump","watlev":3,"watlev_label":"always underwater / submerged","valsou_m":null,"inform":null,"source":"VNF IENC (Licence Ouverte 2.0)"}},{"type":"Feature","geometry":{"type":"Point","coordinates":[3.049514,50.691084]},"properties":{"name":"palplanches immerg\u00e9es","waterway":"Canal Dunkerque\u2013Escaut","catobs":1,"catobs_label":"snag / stump","watlev":3,"watlev_label":"always underwater / submerged","valsou_m":null,"inform":null,"source":"VNF IENC (Licence Ouverte 2.0)"}},{"type":"Feature","geometry":{"type":"Point","coordinates":[3.062806,50.670142]},"properties":{"name":"palplanches immerg\u00e9es","waterway":"Canal Dunkerque\u2013Escaut","catobs":1,"catobs_label":"snag / stump","watlev":3,"watlev_label":"always underwater / submerged","valsou_m":null,"inform":null,"source":"VNF IENC (Licence Ouverte 2.0)"}},{"type":"Feature","geometry":{"type":"Point","coordinates":[3.062875,50.669729]},"properties":{"name":"palplanches immerg\u00e9es","waterway":"Canal Dunkerque\u2013Escaut","catobs":1,"catobs_label":"snag / stump","watlev":3,"watlev_label":"always underwater / submerged","valsou_m":null,"inform":null,"source":"VNF IENC (Licence Ouverte 2.0)"}},{"type":"Feature","geometry":{"type":"Point","coordinates":[3.026703,50.696776]},"properties":{"name":"palplanches immerg\u00e9es","waterway":"Canal Dunkerque\u2013Escaut","catobs":1,"catobs_label":"snag / stump","watlev":3,"watlev_label":"always underwater / submerged","valsou_m":null,"inform":null,"source":"VNF IENC (Licence Ouverte 2.0)"}},{"type":"Feature","geometry":{"type":"Point","coordinates":[3.027775,50.696537]},"properties":{"name":"palplanches immerg\u00e9es","waterway":"Canal Dunkerque\u2013Escaut","catobs":1,"catobs_label":"snag / stump","watlev":3,"watlev_label":"always underwater / submerged","valsou_m":null,"inform":null,"source":"VNF IENC (Licence Ouverte 2.0)"}},{"type":"Feature","geometry":{"type":"Point","coordinates":[3.029491,50.696118]},"properties":{"name":"palplanches immerg\u00e9es","waterway":"Canal Dunkerque\u2013Escaut","catobs":1,"catobs_label":"snag / stump","watlev":3,"watlev_label":"always underwater / submerged","valsou_m":null,"inform":null,"source":"VNF IENC (Licence Ouverte 2.0)"}},{"type":"Feature","geometry":{"type":"Point","coordinates":[3.030577,50.695845]},"properties":{"name":"palplanches immerg\u00e9es","waterway":"Canal Dunkerque\u2013Escaut","catobs":1,"catobs_label":"snag / stump","watlev":3,"watlev_label":"always underwater / submerged","valsou_m":null,"inform":null,"source":"VNF IENC (Licence Ouverte 2.0)"}},{"type":"Feature","geometry":{"type":"Point","coordinates":[3.058699,50.679575]},"properties":{"name":"palplanches immerg\u00e9es","waterway":"Canal Dunkerque\u2013Escaut","catobs":1,"catobs_label":"snag / stump","watlev":3,"watlev_label":"always underwater / submerged","valsou_m":null,"inform":null,"source":"VNF IENC (Licence Ouverte 2.0)"}},{"type":"Feature","geometry":{"type":"Point","coordinates":[3.058696,50.67934]},"properties":{"name":"palplanches immerg\u00e9es","waterway":"Canal Dunkerque\u2013Escaut","catobs":1,"catobs_label":"snag / stump","watlev":3,"watlev_label":"always underwater / submerged","valsou_m":null,"inform":null,"source":"VNF IENC (Licence Ouverte 2.0)"}},{"type":"Feature","geometry":{"type":"Point","coordinates":[3.058692,50.679055]},"properties":{"name":"palplanches immerg\u00e9es","waterway":"Canal Dunkerque\u2013Escaut","catobs":1,"catobs_label":"snag / stump","watlev":3,"watlev_label":"always underwater / submerged","valsou_m":null,"inform":null,"source":"VNF IENC (Licence Ouverte 2.0)"}},{"type":"Feature","geometry":{"type":"Point","coordinates":[3.062943,50.66669]},"properties":{"name":"palplanches immerg\u00e9es","waterway":"Canal Dunkerque\u2013Escaut","catobs":1,"catobs_label":"snag / stump","watlev":3,"watlev_label":"always underwater / submerged","valsou_m":null,"inform":null,"source":"VNF IENC (Licence Ouverte 2.0)"}},{"type":"Feature","geometry":{"type":"Point","coordinates":[3.036515,50.636777]},"properties":{"name":"palplanches immerg\u00e9es","waterway":"Canal Dunkerque\u2013Escaut","catobs":1,"catobs_label":"snag / stump","watlev":3,"watlev_label":"always underwater / submerged","valsou_m":null,"inform":null,"source":"VNF IENC (Licence Ouverte 2.0)"}},{"type":"Feature","geometry":{"type":"Point","coordinates":[3.042923,50.646871]},"properties":{"name":"palplanches immerg\u00e9es","waterway":"Canal Dunkerque\u2013Escaut","catobs":1,"catobs_label":"snag / stump","watlev":3,"watlev_label":"always underwater / submerged","valsou_m":null,"inform":null,"source":"VNF IENC (Licence Ouverte 2.0)"}},{"type":"Feature","geometry":{"type":"Point","coordinates":[3.037532,50.642238]},"properties":{"name":"palplanches immerg\u00e9es","waterway":"Canal Dunkerque\u2013Escaut","catobs":1,"catobs_label":"snag / stump","watlev":3,"watlev_label":"always underwater / submerged","valsou_m":null,"inform":null,"source":"VNF IENC (Licence Ouverte 2.0)"}},{"type":"Feature","geometry":{"type":"Point","coordinates":[3.037077,50.64306]},"properties":{"name":"palplanches immerg\u00e9es","waterway":"Canal Dunkerque\u2013Escaut","catobs":1,"catobs_label":"snag / stump","watlev":3,"watlev_label":"always underwater / submerged","valsou_m":null,"inform":null,"source":"VNF IENC (Licence Ouverte 2.0)"}},{"type":"Feature","geometry":{"type":"Point","coordinates":[3.000057,50.71054]},"properties":{"name":"palplanches immerg\u00e9es","waterway":"Canal Dunkerque\u2013Escaut","catobs":1,"catobs_label":"snag / stump","watlev":3,"watlev_label":"always underwater / submerged","valsou_m":null,"inform":null,"source":"VNF IENC (Licence Ouverte 2.0)"}},{"type":"Feature","geometry":{"type":"Point","coordinates":[3.005608,50.709723]},"properties":{"name":"palplanches immerg\u00e9es","waterway":"Canal Dunkerque\u2013Escaut","catobs":1,"catobs_label":"snag / stump","watlev":3,"watlev_label":"always underwater / submerged","valsou_m":null,"inform":null,"source":"VNF IENC (Licence Ouverte 2.0)"}},{"type":"Feature","geometry":{"type":"Point","coordinates":[2.968879,50.721091]},"properties":{"name":"palplanches immerg\u00e9es","waterway":"Canal Dunkerque\u2013Escaut","catobs":1,"catobs_label":"snag / stump","watlev":3,"watlev_label":"always underwater / submerged","valsou_m":null,"inform":null,"source":"VNF IENC (Licence Ouverte 2.0)"}},{"type":"Feature","geometry":{"type":"Point","coordinates":[2.977346,50.717437]},"properties":{"name":"palplanches immerg\u00e9es","waterway":"Canal Dunkerque\u2013Escaut","catobs":1,"catobs_label":"snag / stump","watlev":3,"watlev_label":"always underwater / submerged","valsou_m":null,"inform":null,"source":"VNF IENC (Licence Ouverte 2.0)"}},{"type":"Feature","geometry":{"type":"Point","coordinates":[2.97541,50.71833]},"properties":{"name":"palplanches immerg\u00e9es","waterway":"Canal Dunkerque\u2013Escaut","catobs":1,"catobs_label":"snag / stump","watlev":3,"watlev_label":"always underwater / submerged","valsou_m":null,"inform":null,"source":"VNF IENC (Licence Ouverte 2.0)"}},{"type":"Feature","geometry":{"type":"Point","coordinates":[3.007429,50.708409]},"properties":{"name":"palplanches immerg\u00e9es","waterway":"Canal Dunkerque\u2013Escaut","catobs":1,"catobs_label":"snag / stump","watlev":3,"watlev_label":"always underwater / submerged","valsou_m":null,"inform":null,"source":"VNF IENC (Licence Ouverte 2.0)"}},{"type":"Feature","geometry":{"type":"Point","coordinates":[3.003449,50.710173]},"properties":{"name":"palplanches immerg\u00e9es","waterway":"Canal Dunkerque\u2013Escaut","catobs":1,"catobs_label":"snag / stump","watlev":3,"watlev_label":"always underwater / submerged","valsou_m":null,"inform":null,"source":"VNF IENC (Licence Ouverte 2.0)"}},{"type":"Feature","geometry":{"type":"Point","coordinates":[2.995157,50.712211]},"properties":{"name":"palplanches immerg\u00e9es","waterway":"Canal Dunkerque\u2013Escaut","catobs":1,"catobs_label":"snag / stump","watlev":3,"watlev_label":"always underwater / submerged","valsou_m":null,"inform":null,"source":"VNF IENC (Licence Ouverte 2.0)"}},{"type":"Feature","geometry":{"type":"Point","coordinates":[3.028637,50.696352]},"properties":{"name":"palissade","waterway":"Canal Dunkerque\u2013Escaut","catobs":5,"catobs_label":"fish haven","watlev":null,"watlev_label":null,"valsou_m":null,"inform":null,"source":"VNF IENC (Licence Ouverte 2.0)"}},{"type":"Feature","geometry":{"type":"Point","coordinates":[3.040379,50.645101]},"properties":{"name":"Palplanches immerg\u00e9es","waterway":"Canal Dunkerque\u2013Escaut","catobs":1,"catobs_label":"snag / stump","watlev":3,"watlev_label":"always underwater / submerged","valsou_m":null,"inform":null,"source":"VNF IENC (Licence Ouverte 2.0)"}},{"type":"Feature","geometry":{"type":"Point","coordinates":[3.037296,50.6376]},"properties":{"name":"Palplanches immerg\u00e9es","waterway":"Canal Dunkerque\u2013Escaut","catobs":1,"catobs_label":"snag / stump","watlev":3,"watlev_label":"always underwater / submerged","valsou_m":null,"inform":null,"source":"VNF IENC (Licence Ouverte 2.0)"}},{"type":"Feature","geometry":{"type":"Point","coordinates":[3.5341,50.383635]},"properties":{"name":null,"waterway":"Canal Dunkerque\u2013Escaut","catobs":1,"catobs_label":"snag / stump","watlev":5,"watlev_label":"awash","valsou_m":null,"inform":null,"source":"VNF IENC (Licence Ouverte 2.0)"}},{"type":"Feature","geometry":{"type":"Point","coordinates":[3.538782,50.386395]},"properties":{"name":null,"waterway":"Canal Dunkerque\u2013Escaut","catobs":1,"catobs_label":"snag / stump","watlev":1,"watlev_label":"partly submerged at high water","valsou_m":null,"inform":null,"source":"VNF IENC (Licence Ouverte 2.0)"}},{"type":"Feature","geometry":{"type":"Point","coordinates":[3.53884,50.386337]},"properties":{"name":null,"waterway":"Canal Dunkerque\u2013Escaut","catobs":1,"catobs_label":"snag / stump","watlev":1,"watlev_label":"partly submerged at high water","valsou_m":null,"inform":null,"source":"VNF IENC (Licence Ouverte 2.0)"}},{"type":"Feature","geometry":{"type":"Point","coordinates":[3.538738,50.386438]},"properties":{"name":null,"waterway":"Canal Dunkerque\u2013Escaut","catobs":1,"catobs_label":"snag / stump","watlev":1,"watlev_label":"partly submerged at high water","valsou_m":null,"inform":null,"source":"VNF IENC (Licence Ouverte 2.0)"}},{"type":"Feature","geometry":{"type":"Point","coordinates":[3.538713,50.38646]},"properties":{"name":null,"waterway":"Canal Dunkerque\u2013Escaut","catobs":1,"catobs_label":"snag / stump","watlev":1,"watlev_label":"partly submerged at high water","valsou_m":null,"inform":null,"source":"VNF IENC (Licence Ouverte 2.0)"}},{"type":"Feature","geometry":{"type":"Point","coordinates":[4.817125,45.726404]},"properties":{"name":"ancienne \u00e9cluse","waterway":"Rh\u00f4ne","catobs":10,"catobs_label":"boom","watlev":1,"watlev_label":"partly submerged at high water","valsou_m":null,"inform":null,"source":"VNF IENC (Licence Ouverte 2.0)"}},{"type":"Feature","geometry":{"type":"Point","coordinates":[1.781984,48.967618]},"properties":{"name":null,"waterway":"Seine","catobs":1,"catobs_label":"snag / stump","watlev":3,"watlev_label":"always underwater / submerged","valsou_m":null,"inform":null,"source":"VNF IENC (Licence Ouverte 2.0)"}},{"type":"Feature","geometry":{"type":"Point","coordinates":[4.847568,46.766933]},"properties":{"name":"attention rochers","waterway":"Sa\u00f4ne","catobs":7,"catobs_label":"foul ground","watlev":3,"watlev_label":"always underwater / submerged","valsou_m":null,"inform":null,"source":"VNF IENC (Licence Ouverte 2.0)"}},{"type":"Feature","geometry":{"type":"Point","coordinates":[4.863057,46.780694]},"properties":{"name":"pointe d'\u00eelot envas\u00e9e","waterway":"Sa\u00f4ne","catobs":7,"catobs_label":"foul ground","watlev":3,"watlev_label":"always underwater / submerged","valsou_m":null,"inform":null,"source":"VNF IENC (Licence Ouverte 2.0)"}},{"type":"Feature","geometry":{"type":"Point","coordinates":[4.882008,46.789934]},"properties":{"name":"banc de sable","waterway":"Sa\u00f4ne","catobs":7,"catobs_label":"foul ground","watlev":3,"watlev_label":"always underwater / submerged","valsou_m":null,"inform":null,"source":"VNF IENC (Licence Ouverte 2.0)"}},{"type":"Feature","geometry":{"type":"Point","coordinates":[4.919344,46.806765]},"properties":{"name":"banc de graviers","waterway":"Sa\u00f4ne","catobs":7,"catobs_label":"foul ground","watlev":3,"watlev_label":"always underwater / submerged","valsou_m":null,"inform":null,"source":"VNF IENC (Licence Ouverte 2.0)"}},{"type":"Feature","geometry":{"type":"Point","coordinates":[4.942237,46.823342]},"properties":{"name":"zone de vase et d'herbiers","waterway":"Sa\u00f4ne","catobs":6,"catobs_label":"foul area","watlev":3,"watlev_label":"always underwater / submerged","valsou_m":null,"inform":null,"source":"VNF IENC (Licence Ouverte 2.0)"}},{"type":"Feature","geometry":{"type":"Point","coordinates":[4.939998,46.823634]},"properties":{"name":"zone de vase et d'herbiers","waterway":"Sa\u00f4ne","catobs":6,"catobs_label":"foul area","watlev":3,"watlev_label":"always underwater / submerged","valsou_m":null,"inform":null,"source":"VNF IENC (Licence Ouverte 2.0)"}},{"type":"Feature","geometry":{"type":"Point","coordinates":[4.879594,46.737213]},"properties":{"name":"zone de vase et d'herbiers","waterway":"Sa\u00f4ne","catobs":6,"catobs_label":"foul area","watlev":1,"watlev_label":"partly submerged at high water","valsou_m":null,"inform":null,"source":"VNF IENC (Licence Ouverte 2.0)"}},{"type":"Feature","geometry":{"type":"Point","coordinates":[4.8801,46.737198]},"properties":{"name":"zone de vase et d'herbiers","waterway":"Sa\u00f4ne","catobs":6,"catobs_label":"foul area","watlev":1,"watlev_label":"partly submerged at high water","valsou_m":null,"inform":null,"source":"VNF IENC (Licence Ouverte 2.0)"}},{"type":"Feature","geometry":{"type":"Point","coordinates":[4.939103,46.819194]},"properties":{"name":null,"waterway":"Sa\u00f4ne","catobs":null,"catobs_label":null,"watlev":3,"watlev_label":"always underwater / submerged","valsou_m":null,"inform":null,"source":"VNF IENC (Licence Ouverte 2.0)"}},{"type":"Feature","geometry":{"type":"Point","coordinates":[4.950642,46.829886]},"properties":{"name":null,"waterway":"Sa\u00f4ne","catobs":1,"catobs_label":"snag / stump","watlev":3,"watlev_label":"always underwater / submerged","valsou_m":0.5,"inform":null,"source":"VNF IENC (Licence Ouverte 2.0)"}},{"type":"Feature","geometry":{"type":"Point","coordinates":[5.132244,47.007435]},"properties":{"name":"banc de sable","waterway":"Sa\u00f4ne","catobs":7,"catobs_label":"foul ground","watlev":1,"watlev_label":"partly submerged at high water","valsou_m":null,"inform":"sand bed","source":"VNF IENC (Licence Ouverte 2.0)"}},{"type":"Feature","geometry":{"type":"Point","coordinates":[5.195937,47.067233]},"properties":{"name":"\u00eflot","waterway":"Sa\u00f4ne","catobs":7,"catobs_label":"foul ground","watlev":1,"watlev_label":"partly submerged at high water","valsou_m":null,"inform":"island","source":"VNF IENC (Licence Ouverte 2.0)"}},{"type":"Feature","geometry":{"type":"Point","coordinates":[5.129466,47.014323]},"properties":{"name":"zone de vase et d'herbiers","waterway":"Sa\u00f4ne","catobs":6,"catobs_label":"foul area","watlev":1,"watlev_label":"partly submerged at high water","valsou_m":null,"inform":"silt and watergrass","source":"VNF IENC (Licence Ouverte 2.0)"}},{"type":"Feature","geometry":{"type":"Point","coordinates":[5.051493,46.922156]},"properties":{"name":"zone humide","waterway":"Sa\u00f4ne","catobs":6,"catobs_label":"foul area","watlev":1,"watlev_label":"partly submerged at high water","valsou_m":null,"inform":null,"source":"VNF IENC (Licence Ouverte 2.0)"}},{"type":"Feature","geometry":{"type":"Point","coordinates":[5.111553,46.959931]},"properties":{"name":"zone humide","waterway":"Sa\u00f4ne","catobs":6,"catobs_label":"foul area","watlev":1,"watlev_label":"partly submerged at high water","valsou_m":null,"inform":null,"source":"VNF IENC (Licence Ouverte 2.0)"}},{"type":"Feature","geometry":{"type":"Point","coordinates":[5.136751,46.98364]},"properties":{"name":null,"waterway":"Sa\u00f4ne","catobs":7,"catobs_label":"foul ground","watlev":3,"watlev_label":"always underwater / submerged","valsou_m":null,"inform":"zone d'atterrissement","source":"VNF IENC (Licence Ouverte 2.0)"}},{"type":"Feature","geometry":{"type":"Point","coordinates":[5.134194,46.983972]},"properties":{"name":null,"waterway":"Sa\u00f4ne","catobs":null,"catobs_label":null,"watlev":3,"watlev_label":"always underwater / submerged","valsou_m":null,"inform":null,"source":"VNF IENC (Licence Ouverte 2.0)"}},{"type":"Feature","geometry":{"type":"Point","coordinates":[5.144279,46.987779]},"properties":{"name":null,"waterway":"Sa\u00f4ne","catobs":null,"catobs_label":null,"watlev":3,"watlev_label":"always underwater / submerged","valsou_m":null,"inform":null,"source":"VNF IENC (Licence Ouverte 2.0)"}},{"type":"Feature","geometry":{"type":"Point","coordinates":[5.134458,46.984111]},"properties":{"name":null,"waterway":"Sa\u00f4ne","catobs":null,"catobs_label":null,"watlev":1,"watlev_label":"partly submerged at high water","valsou_m":null,"inform":null,"source":"VNF IENC (Licence Ouverte 2.0)"}},{"type":"Feature","geometry":{"type":"Point","coordinates":[4.958056,46.862023]},"properties":{"name":"banc de vase","waterway":"Sa\u00f4ne","catobs":7,"catobs_label":"foul ground","watlev":3,"watlev_label":"always underwater / submerged","valsou_m":null,"inform":"SILT","source":"VNF IENC (Licence Ouverte 2.0)"}},{"type":"Feature","geometry":{"type":"Point","coordinates":[4.959498,46.868054]},"properties":{"name":"banc de vase","waterway":"Sa\u00f4ne","catobs":7,"catobs_label":"foul ground","watlev":3,"watlev_label":"always underwater / submerged","valsou_m":null,"inform":"SILT","source":"VNF IENC (Licence Ouverte 2.0)"}},{"type":"Feature","geometry":{"type":"Point","coordinates":[4.955396,46.880028]},"properties":{"name":"rochers","waterway":"Sa\u00f4ne","catobs":7,"catobs_label":"foul ground","watlev":3,"watlev_label":"always underwater / submerged","valsou_m":null,"inform":null,"source":"VNF IENC (Licence Ouverte 2.0)"}},{"type":"Feature","geometry":{"type":"Point","coordinates":[5.033934,46.898155]},"properties":{"name":"ancienne \u00e9cluse de Verdun","waterway":"Sa\u00f4ne","catobs":10,"catobs_label":"boom","watlev":1,"watlev_label":"partly submerged at high water","valsou_m":null,"inform":"faible profondeur","source":"VNF IENC (Licence Ouverte 2.0)"}},{"type":"Feature","geometry":{"type":"Point","coordinates":[5.053562,46.913977]},"properties":{"name":"zone humide","waterway":"Sa\u00f4ne","catobs":6,"catobs_label":"foul area","watlev":1,"watlev_label":"partly submerged at high water","valsou_m":null,"inform":null,"source":"VNF IENC (Licence Ouverte 2.0)"}},{"type":"Feature","geometry":{"type":"Point","coordinates":[5.05005,46.90549]},"properties":{"name":"zone de vase et d'herbiers","waterway":"Sa\u00f4ne","catobs":6,"catobs_label":"foul area","watlev":1,"watlev_label":"partly submerged at high water","valsou_m":null,"inform":"silt and watergrass","source":"VNF IENC (Licence Ouverte 2.0)"}},{"type":"Feature","geometry":{"type":"Point","coordinates":[5.033839,46.896867]},"properties":{"name":null,"waterway":"Sa\u00f4ne","catobs":null,"catobs_label":null,"watlev":5,"watlev_label":"awash","valsou_m":0.1,"inform":null,"source":"VNF IENC (Licence Ouverte 2.0)"}},{"type":"Feature","geometry":{"type":"Point","coordinates":[4.999334,46.901272]},"properties":{"name":null,"waterway":"Sa\u00f4ne","catobs":null,"catobs_label":null,"watlev":3,"watlev_label":"always underwater / submerged","valsou_m":null,"inform":null,"source":"VNF IENC (Licence Ouverte 2.0)"}},{"type":"Feature","geometry":{"type":"Point","coordinates":[4.955091,46.833017]},"properties":{"name":null,"waterway":"Sa\u00f4ne","catobs":1,"catobs_label":"snag / stump","watlev":3,"watlev_label":"always underwater / submerged","valsou_m":0.5,"inform":"\u00e9pi","source":"VNF IENC (Licence Ouverte 2.0)"}},{"type":"Feature","geometry":{"type":"Point","coordinates":[-0.193122,44.565286]},"properties":{"name":"Haut fond","waterway":"Garonne (tidal)","catobs":null,"catobs_label":null,"watlev":3,"watlev_label":"always underwater / submerged","valsou_m":1.0,"inform":null,"source":"VNF IENC (Licence Ouverte 2.0)"}},{"type":"Feature","geometry":{"type":"Point","coordinates":[-0.192594,44.565216]},"properties":{"name":"Haut fond","waterway":"Garonne (tidal)","catobs":null,"catobs_label":null,"watlev":3,"watlev_label":"always underwater / submerged","valsou_m":1.0,"inform":null,"source":"VNF IENC (Licence Ouverte 2.0)"}},{"type":"Feature","geometry":{"type":"Point","coordinates":[4.362926,51.237082]},"properties":{"name":null,"waterway":"Belgium waterway","catobs":null,"catobs_label":null,"watlev":3,"watlev_label":"always underwater / submerged","valsou_m":9.9,"inform":null,"source":"VNF IENC (Licence Ouverte 2.0)"}},{"type":"Feature","geometry":{"type":"Point","coordinates":[4.323585,51.252133]},"properties":{"name":null,"waterway":"Belgium waterway","catobs":null,"catobs_label":null,"watlev":3,"watlev_label":"always underwater / submerged","valsou_m":12.7,"inform":null,"source":"VNF IENC (Licence Ouverte 2.0)"}},{"type":"Feature","geometry":{"type":"Point","coordinates":[4.397913,51.234024]},"properties":{"name":null,"waterway":"Belgium waterway","catobs":null,"catobs_label":null,"watlev":3,"watlev_label":"always underwater / submerged","valsou_m":7.1,"inform":null,"source":"VNF IENC (Licence Ouverte 2.0)"}},{"type":"Feature","geometry":{"type":"Point","coordinates":[4.330117,51.183983]},"properties":{"name":null,"waterway":"Belgium waterway","catobs":7,"catobs_label":"foul ground","watlev":3,"watlev_label":"always underwater / submerged","valsou_m":5.7,"inform":null,"source":"VNF IENC (Licence Ouverte 2.0)"}},{"type":"Feature","geometry":{"type":"Point","coordinates":[2.620338,51.179168]},"properties":{"name":null,"waterway":"Belgium waterway","catobs":null,"catobs_label":null,"watlev":3,"watlev_label":"always underwater / submerged","valsou_m":5.9,"inform":null,"source":"VNF IENC (Licence Ouverte 2.0)"}},{"type":"Feature","geometry":{"type":"Point","coordinates":[2.671186,51.139997]},"properties":{"name":null,"waterway":"Belgium waterway","catobs":null,"catobs_label":null,"watlev":4,"watlev_label":"covers and uncovers","valsou_m":-0.3,"inform":null,"source":"VNF IENC (Licence Ouverte 2.0)"}},{"type":"Feature","geometry":{"type":"Point","coordinates":[2.638568,51.228883]},"properties":{"name":null,"waterway":"Belgium waterway","catobs":7,"catobs_label":"foul ground","watlev":3,"watlev_label":"always underwater / submerged","valsou_m":null,"inform":null,"source":"VNF IENC (Licence Ouverte 2.0)"}},{"type":"Feature","geometry":{"type":"Point","coordinates":[2.7497,51.197067]},"properties":{"name":"Steel Cable","waterway":"Belgium waterway","catobs":null,"catobs_label":null,"watlev":3,"watlev_label":"always underwater / submerged","valsou_m":null,"inform":"Stalen Kabel","source":"VNF IENC (Licence Ouverte 2.0)"}},{"type":"Feature","geometry":{"type":"Point","coordinates":[2.845,51.215333]},"properties":{"name":null,"waterway":"Belgium waterway","catobs":null,"catobs_label":null,"watlev":3,"watlev_label":"always underwater / submerged","valsou_m":7.0,"inform":null,"source":"VNF IENC (Licence Ouverte 2.0)"}},{"type":"Feature","geometry":{"type":"Point","coordinates":[2.841021,51.218003]},"properties":{"name":null,"waterway":"Belgium waterway","catobs":null,"catobs_label":null,"watlev":3,"watlev_label":"always underwater / submerged","valsou_m":6.9,"inform":null,"source":"VNF IENC (Licence Ouverte 2.0)"}},{"type":"Feature","geometry":{"type":"Point","coordinates":[2.866694,51.224832]},"properties":{"name":null,"waterway":"Belgium waterway","catobs":null,"catobs_label":null,"watlev":3,"watlev_label":"always underwater / submerged","valsou_m":5.9,"inform":null,"source":"VNF IENC (Licence Ouverte 2.0)"}},{"type":"Feature","geometry":{"type":"Point","coordinates":[2.955284,51.291359]},"properties":{"name":null,"waterway":"Belgium waterway","catobs":7,"catobs_label":"foul ground","watlev":3,"watlev_label":"always underwater / submerged","valsou_m":null,"inform":null,"source":"VNF IENC (Licence Ouverte 2.0)"}},{"type":"Feature","geometry":{"type":"Point","coordinates":[3.103851,51.390346]},"properties":{"name":null,"waterway":"Belgium waterway","catobs":null,"catobs_label":null,"watlev":3,"watlev_label":"always underwater / submerged","valsou_m":9.0,"inform":null,"source":"VNF IENC (Licence Ouverte 2.0)"}},{"type":"Feature","geometry":{"type":"Point","coordinates":[3.114817,51.36095]},"properties":{"name":null,"waterway":"Belgium waterway","catobs":7,"catobs_label":"foul ground","watlev":3,"watlev_label":"always underwater / submerged","valsou_m":null,"inform":null,"source":"VNF IENC (Licence Ouverte 2.0)"}},{"type":"Feature","geometry":{"type":"Point","coordinates":[3.104917,51.400583]},"properties":{"name":null,"waterway":"Belgium waterway","catobs":7,"catobs_label":"foul ground","watlev":3,"watlev_label":"always underwater / submerged","valsou_m":null,"inform":null,"source":"VNF IENC (Licence Ouverte 2.0)"}},{"type":"Feature","geometry":{"type":"Point","coordinates":[2.968955,51.296855]},"properties":{"name":null,"waterway":"Belgium waterway","catobs":7,"catobs_label":"foul ground","watlev":3,"watlev_label":"always underwater / submerged","valsou_m":null,"inform":null,"source":"VNF IENC (Licence Ouverte 2.0)"}},{"type":"Feature","geometry":{"type":"Point","coordinates":[3.174358,51.40808]},"properties":{"name":null,"waterway":"Belgium waterway","catobs":null,"catobs_label":null,"watlev":3,"watlev_label":"always underwater / submerged","valsou_m":9.6,"inform":null,"source":"VNF IENC (Licence Ouverte 2.0)"}},{"type":"Feature","geometry":{"type":"Point","coordinates":[3.802974,51.182143]},"properties":{"name":null,"waterway":"Belgium waterway","catobs":null,"catobs_label":null,"watlev":3,"watlev_label":"always underwater / submerged","valsou_m":2.9,"inform":"De diepte van de onderwaterwand is 2.9m onder het gemiddeld kanaalpeil","source":"VNF IENC (Licence Ouverte 2.0)"}},{"type":"Feature","geometry":{"type":"Point","coordinates":[3.803028,51.182539]},"properties":{"name":null,"waterway":"Belgium waterway","catobs":null,"catobs_label":null,"watlev":3,"watlev_label":"always underwater / submerged","valsou_m":2.9,"inform":"De diepte van de onderwaterwand is 2.9m onder het gemiddeld kanaalpeil","source":"VNF IENC (Licence Ouverte 2.0)"}},{"type":"Feature","geometry":{"type":"Point","coordinates":[3.802373,51.186372]},"properties":{"name":null,"waterway":"Belgium waterway","catobs":null,"catobs_label":null,"watlev":3,"watlev_label":"always underwater / submerged","valsou_m":13.3,"inform":null,"source":"VNF IENC (Licence Ouverte 2.0)"}},{"type":"Feature","geometry":{"type":"Point","coordinates":[3.801994,51.186529]},"properties":{"name":null,"waterway":"Belgium waterway","catobs":null,"catobs_label":null,"watlev":3,"watlev_label":"always underwater / submerged","valsou_m":13.6,"inform":null,"source":"VNF IENC (Licence Ouverte 2.0)"}}]}